[{"OBJECT_NAME":"STARLINK-3301","OBJECT_ID":"2021-125P","EPOCH":"2026-03-09T19:30:54.921888","MEAN_MOTION":15.08810886,"ECCENTRICITY":0.00016717,"INCLINATION":53.2168,"RA_OF_ASC_NODE":248.5679,"ARG_OF_PERICENTER":83.0504,"MEAN_ANOMALY":277.0678,"EPHEMERIS_TYPE":0,"CLASSIFICATION_TYPE":"U","NORAD_CAT_ID":50169,"ELEMENT_SET_NO":999,"REV_AT_EPOCH":23662,"BSTAR":0.00037981881,"MEAN_MOTION_DOT":5.757e-5,"MEAN_MOTION_DDOT":0},{"OBJECT_NAME":"PSLV R\/B","OBJECT_ID":"2010-035F","EPOCH":"2026-03-09T21:32:02.806944","MEAN_MOTION":15.11637156,"ECCENTRICITY":0.00120112,"INCLINATION":97.9796,"RA_OF_ASC_NODE":355.2302,"ARG_OF_PERICENTER":197.9598,"MEAN_ANOMALY":162.1208,"EPHEMERIS_TYPE":0,"CLASSIFICATION_TYPE":"U","NORAD_CAT_ID":36800,"ELEMENT_SET_NO":999,"REV_AT_EPOCH":85407,"BSTAR":0.00037264097,"MEAN_MOTION_DOT":6.275e-5,"MEAN_MOTION_DDOT":0}]
